COSMOS 1408 DEB         
1 50032U 82092RU  26195.05688259  .00002695  00000+0  50667-4 0  9996
2 50032  82.5608 199.4558 0016170 151.3793 208.8349 15.47897336259010
COSMOS 1408 DEB         
1 50058U 82092SW  26195.04626428  .00053468  00000+0  22739-3 0  9995
2 50058  82.6052 202.8668 0007343  37.2399 322.9379 15.85023229261589
COSMOS 1408 DEB         
1 50621U 82092ALR 26195.09011125  .00027929  00000+0  21727-3 0  9997
2 50621  82.5611 209.6289 0021286  82.2300 278.1379 15.71261097255849
